NORAD_CAT_ID,OBJECT_NAME,OBJECT_TYPE,EPOCH,MEAN_MOTION,ECCENTRICITY,INCLINATION,RA_OF_ASC_NODE,ARG_OF_PERICENTER,MEAN_ANOMALY,BSTAR,MEAN_MOTION_DOT,MEAN_MOTION_DDOT,TLE_LINE0,TLE_LINE1,TLE_LINE2,SEMIMAJOR_AXIS,PERIOD,APOGEE,PERIGEE,DECAYED
49457.0,STARLINK-3132,PAYLOAD,2022-02-14 14:00:01,15.15291824,0.0001657,53.2165,41.6012,44.4333,88.4908,-0.031802,-0.00567344,0.0,0 STARLINK-3132,1 49457U 21104BB  22045.58334491 -.00567344  00000-0 -31802-1 0  9993,2 49457  53.2165  41.6012 0001657  44.4333  88.4908 15.15291824  3601,6898.23,95.031,521.238,518.952,0.0
49457.0,STARLINK-3132,PAYLOAD,2022-02-14 20:00:01,15.1500505,0.0001526,53.2174,40.4698,46.0746,11.2257,-0.037373,-0.00661678,0.0,0 STARLINK-3132,1 49457U 21104BB  22045.83334491 -.00661678  00000-0 -37373-1 0  9995,2 49457  53.2174  40.4698 0001526  46.0746  11.2257 15.15005050  3626,6899.1,95.049,522.018,519.9119999999998,0.0
49457.0,STARLINK-3132,PAYLOAD,2022-02-15 12:00:00,15.14072856,0.0001629999999999,53.2173,37.4568,44.8622,49.3161,-0.038413,-0.00662307,0.0,0 STARLINK-3132,1 49457U 21104BB  22046.50001157 -.00662307  00000-0 -38413-1 0  9996,2 49457  53.2173  37.4568 0001630  44.8622  49.3161 15.14072856 15943,6901.932,95.108,524.922,522.672,0.0
49457.0,STARLINK-3132,PAYLOAD,2022-02-15 14:00:01,15.13902529,0.0001696999999999,53.2164,37.0783,47.2036,141.4548,-0.033951,-0.00581306,0.0,0 STARLINK-3132,1 49457U 21104BB  22046.58334491 -.00581306  00000-0 -33951-1 0  9995,2 49457  53.2164  37.0783 0001697  47.2036 141.4548 15.13902529  3619,6902.449000000001,95.118,525.486,523.143,0.0
49457.0,STARLINK-3132,PAYLOAD,2022-02-15 22:00:01,15.1349106,0.0001678,53.2173,35.5731,51.6107,154.5423,-0.039258,-0.00665622,0.0,0 STARLINK-3132,1 49457U 21104BB  22046.91668981 -.00665622  00000-0 -39258-1 0  9996,2 49457  53.2173  35.5731 0001678  51.6107 154.5423 15.13491060  3634,6903.7,95.144,526.724,524.4069999999998,0.0
49457.0,STARLINK-3132,PAYLOAD,2022-02-16 14:00:01,15.12557822,0.000166,53.2173,32.5666,51.6949,187.6299,-0.040293,-0.00665471,0.0,0 STARLINK-3132,1 49457U 21104BB  22047.58334491 -.00665471  00000-0 -40293-1 0  9999,2 49457  53.2173  32.5666 0001660  51.6949 187.6299 15.12557822 16105,6906.54,95.203,529.5509999999998,527.258,0.0
49457.0,STARLINK-3132,PAYLOAD,2022-02-16 22:00:00,15.11988897,0.0001662,53.2164,31.0613,44.0375,211.1215,-0.032012,-0.0052298,0.0,0 STARLINK-3132,1 49457U 21104BB  22047.91667824 -.00522980  00000-0 -32012-1 0  9992,2 49457  53.2164  31.0613 0001662  44.0375 211.1215 15.11988897  3603,6908.272,95.239,531.285,528.989,0.0
49457.0,STARLINK-3132,PAYLOAD,2022-02-17 14:00:01,15.11102032,0.0001644,53.2166,28.0618,46.0703,238.9307,-0.036608,-0.00579538,0.0,0 STARLINK-3132,1 49457U 21104BB  22048.58334491 -.00579538  00000-0 -36608-1 0  9993,2 49457  53.2166  28.0618 0001644  46.0703 238.9307 15.11102032  3601,6910.975,95.295,533.976,531.7040000000002,0.0
49457.0,STARLINK-3132,PAYLOAD,2022-02-17 20:00:01,15.10807984,0.0001734,53.2172,26.9378,48.8564,156.8042,-0.042324,-0.00665661,0.0,0 STARLINK-3132,1 49457U 21104BB  22048.83335648 -.00665661  00000-0 -42324-1 0  9991,2 49457  53.2172  26.9378 0001734  48.8564 156.8042 15.10807984 16293,6911.871999999999,95.313,534.935,532.538,0.0
49457.0,STARLINK-3132,PAYLOAD,2022-02-17 22:00:00,15.10628606,0.0001864,53.2166,26.5612,44.7449,254.3568,-0.036531,-0.00571329,0.0,0 STARLINK-3132,1 49457U 21104BB  22048.91667824 -.00571329  00000-0 -36531-1 0  9994,2 49457  53.2166  26.5612 0001864  44.7449 254.3568 15.10628606  3604,6912.419,95.325,535.572,532.995,0.0
49457.0,STARLINK-3132,PAYLOAD,2022-02-18 14:00:01,15.09759022,0.0001683,53.2173,23.5694,43.4965,282.0794,-0.043658,-0.00666872,0.0,0 STARLINK-3132,1 49457U 21104BB  22049.58334491 -.00666872  00000-0 -43658-1 0  9995,2 49457  53.2173  23.5694 0001683  43.4965 282.0794 15.09759022  3634,6915.073,95.379,538.102,535.774,0.0
49457.0,STARLINK-3132,PAYLOAD,2022-02-18 22:00:00,15.09228389,0.0001889,53.2175,22.0719,39.4411,298.5615,-0.032874,-0.00498883,0.0,0 STARLINK-3132,1 49457U 21104BB  22049.91667824 -.00498883  00000-0 -32874-1 0  9994,2 49457  53.2175  22.0719 0001889  39.4411 298.5615 15.09228389  3627,6916.693,95.413,539.865,537.252,0.0
49457.0,STARLINK-3132,PAYLOAD,2022-02-19 04:00:00,15.08850177,0.0002077,53.2172,20.9512,38.1131,218.8277,-0.0013989,-0.00022489,0.0,0 STARLINK-3132,1 49457U 21104BB  22050.16667824 -.00022489  00000-0 -13989-2 0  9995,2 49457  53.2172  20.9512 0002077  38.1131 218.8277 15.08850177 16490,6917.849,95.437,541.151,538.2769999999998,0.0
49457.0,STARLINK-3132,PAYLOAD,2022-02-19 14:00:01,15.08872882,0.0002007,53.2155,19.0704,43.7166,317.8054,-0.0019336,-0.00030958,0.0,0 STARLINK-3132,1 49457U 21104BB  22050.58334491 -.00030958  00000-0 -19336-2 0  9994,2 49457  53.2155  19.0704 0002007  43.7166 317.8054 15.08872882  3593,6917.78,95.435,541.033,538.256,0.0
49457.0,STARLINK-3132,PAYLOAD,2022-02-19 20:00:01,15.08843431,0.0001924,53.2166,17.9471,47.9568,232.2873,0.0026846,0.00042701,0.0,0 STARLINK-3132,1 49457U 21104BB  22050.83334491  .00042701  00000-0  26846-2 0  9993,2 49457  53.2166  17.9471 0001924  47.9568 232.2873 15.08843431 16593,6917.87,95.437,541.066,538.404,0.0
49457.0,STARLINK-3132,PAYLOAD,2022-02-19 22:00:00,15.08863548,0.0001939,53.217,17.5733,48.82,324.3239,0.0013870999999999,0.00021871,0.0,0 STARLINK-3132,1 49457U 21104BB  22050.91667824  .00021871  00000-0  13871-2 0  9990,2 49457  53.2170  17.5733 0001939  48.8200 324.3239 15.08863548  3590,6917.808000000001,95.436,541.015,538.332,0.0
49457.0,STARLINK-3132,PAYLOAD,2022-02-20 12:00:00,15.0889884,0.0002021,53.2167,14.9557,42.4779,261.0204,-0.0043983999999999,-0.00069726,0.0,0 STARLINK-3132,1 49457U 21104BB  22051.50001157 -.00069726  00000-0 -43984-2 0  9998,2 49457  53.2167  14.9557 0002021  42.4779 261.0204 15.08898840 16692,6917.701,95.434,540.964,538.1669999999998,0.0
49457.0,STARLINK-3132,PAYLOAD,2022-02-20 14:00:01,15.08887271,0.0001964,53.2169,14.581,43.8776,352.538,-0.0036168,-0.00057466,0.0,0 STARLINK-3132,1 49457U 21104BB  22051.58334491 -.00057466  00000-0 -36168-2 0  9990,2 49457  53.2169  14.5810 0001964  43.8776 352.5380 15.08887271  3591,6917.736,95.435,540.96,538.242,0.0
49457.0,STARLINK-3132,PAYLOAD,2022-02-20 20:00:01,15.08848342,0.0001825,53.217,13.4579,46.4893,268.6535,5.2415e-05,5.46e-06,0.0,0 STARLINK-3132,1 49457U 21104BB  22051.83334491  .00000546  00000-0  52415-4 0  9998,2 49457  53.2170  13.4579 0001825  46.4893 268.6535 15.08848342 16744,6917.855,95.437,540.982,538.457,0.0
49457.0,STARLINK-3132,PAYLOAD,2022-02-20 22:00:00,15.0885059,0.000183,53.2173,13.0842,46.3503,1.6903,-0.0005226,-8.598e-05,0.0,0 STARLINK-3132,1 49457U 21104BB  22051.91667824 -.00008598  00000-0 -52260-3 0  9990,2 49457  53.2173  13.0842 0001830  46.3503   1.6903 15.08850590  3590,6917.848000000001,95.437,540.979,538.447,0.0
49457.0,STARLINK-3132,PAYLOAD,2022-02-21 12:00:00,15.08840559,0.0001895,53.2167,10.4665,38.9938,299.3392,-0.0025756,-0.00041047,0.0,0 STARLINK-3132,1 49457U 21104BB  22052.50001157 -.00041047  00000-0 -25756-2 0  9992,2 49457  53.2167  10.4665 0001895  38.9938 299.3392 15.08840559 16841,6917.879,95.438,541.055,538.433,0.0
49457.0,STARLINK-3132,PAYLOAD,2022-02-21 22:00:00,15.08827521,0.0001767,53.2171,8.5954,44.7573,38.0402,9.3493e-05,1.2e-05,0.0,0 STARLINK-3132,1 49457U 21104BB  22052.91667824  .00001200  00000-0  93493-4 0  9996,2 49457  53.2171   8.5954 0001767  44.7573  38.0402 15.08827521  3595,6917.919,95.438,541.006,538.561,0.0
49457.0,STARLINK-3132,PAYLOAD,2022-02-22 04:00:00,15.08825451,0.0001955,53.2169,7.4744,40.9118,320.5724,-0.00055448,-9.099e-05,0.0,0 STARLINK-3132,1 49457U 21104BB  22053.16667824 -.00009099  00000-0 -55448-3 0  9997,2 49457  53.2169   7.4744 0001955  40.9118 320.5724 15.08825451 16948,6917.925,95.438,541.1419999999998,538.437,0.0
49457.0,STARLINK-3132,PAYLOAD,2022-02-22 14:00:01,15.08842418,0.0001825,53.2166,5.603,43.4142,62.5527,-0.0007307,-0.00011899,0.0,0 STARLINK-3132,1 49457U 21104BB  22053.58334491 -.00011899  00000-0 -73070-3 0  9996,2 49457  53.2166   5.6030 0001825  43.4142  62.5527 15.08842418  3609,6917.873000000001,95.437,541.001,538.475,0.0
49457.0,STARLINK-3132,PAYLOAD,2022-02-22 20:00:01,15.08833375,0.0001771,53.2165,4.4802,47.5582,337.1087,0.0023388,0.00037124,0.0,0 STARLINK-3132,1 49457U 21104BB  22053.83334491  .00037124  00000-0  23388-2 0  9997,2 49457  53.2165   4.4802 0001771  47.5582 337.1087 15.08833375 17053,6917.901,95.438,540.991,538.54,0.0
49457.0,STARLINK-3132,PAYLOAD,2022-02-22 22:00:00,15.08855497,0.0001792,53.2166,4.1064,47.412,70.1483,-4.5859e-05,-1.018e-05,0.0,0 STARLINK-3132,1 49457U 21104BB  22053.91667824 -.00001018  00000-0 -45859-4 0  9999,2 49457  53.2166   4.1064 0001792  47.4120  70.1483 15.08855497  3611,6917.833000000001,95.437,540.938,538.4580000000002,0.0
49457.0,STARLINK-3132,PAYLOAD,2022-02-23 12:00:00,15.08846341,0.0001874,53.2159,1.4883,42.0353,5.8404,-0.0016476,-0.00026419,0.0,0 STARLINK-3132,1 49457U 21104BB  22054.50001157 -.00026419  00000-0 -16476-2 0  9999,2 49457  53.2159   1.4883 0001874  42.0353   5.8404 15.08846341 17152,6917.861,95.437,541.0219999999998,538.43,0.0
49457.0,STARLINK-3132,PAYLOAD,2022-02-23 14:00:01,15.08839251,0.00018,53.216,1.1138,44.1387,96.6372,-0.00090691,-0.00014692,0.0,0 STARLINK-3132,1 49457U 21104BB  22054.58334491 -.00014692  00000-0 -90691-3 0  9999,2 49457  53.2160   1.1138 0001800  44.1387  96.6372 15.08839251  3613,6917.8830000000025,95.438,540.993,538.502,0.0
49457.0,STARLINK-3132,PAYLOAD,2022-02-23 22:00:00,15.08840434,0.0001866,53.2161,359.6173,49.091,103.2675,-0.0023088,-0.00036846,0.0,0 STARLINK-3132,1 49457U 21104BB  22054.91667824 -.00036846  00000-0 -23088-2 0  9995,2 49457  53.2161 359.6173 0001866  49.0910 103.2675 15.08840434  3618,6917.879,95.438,541.035,538.453,0.0
